{"fetched_at":"2026-03-29T16:36:15Z","count":15609,"tles":[{"name":"2025-055C","line1":"1 63293U 25055C   26079.91691042  .00013955  00000+0  67639-3 0  9992","line2":"2 63293  97.6378 220.5861 0012315  96.3331 263.9306 15.18577367 55735","category":"Other"}]}