{
  "norad_id": 63293,
  "name": "2025-055C",
  "history": [
    {
      "epoch": "2026-03-20T22:00:21.060288",
      "apogee_km": 518.6227693772626,
      "perigee_km": 501.6558427112659,
      "latitude_deg": 45.235950115547055,
      "longitude_deg": -170.67659967998043,
      "semi_major_axis_km": 6888.276306044264,
      "eccentricity": 0.00123158,
      "inclination_deg": 97.6378,
      "raan_deg": 220.5861,
      "arg_perigee_deg": 96.3331,
      "mean_anomaly_deg": 263.9306,
      "mean_motion_rev_day": 15.18577367
    }
  ]
}